IRIDIUM 8 [+]           
1 24792U 97020A   17079.83990766  .00000169  00000-0  53216-4 0  9991
2 24792  86.4006 355.6290 0002208  82.2120 277.9326 14.34216626 40305
IRIDIUM 7 [+]           
1 24793U 97020B   17079.83356836  .00000175  00000-0  55431-4 0  9994
2 24793  86.4012 355.9099 0002196  83.8697 276.2749 14.34215931 40304
IRIDIUM 6 [+]           
1 24794U 97020C   17079.82715555  .00000173  00000-0  54786-4 0  9991
2 24794  86.4010 355.8453 0002126  83.1514 276.9924 14.34215088 40293
IRIDIUM 5 [+]           
1 24795U 97020D   17079.82106243  .00000202  00000-0  65156-4 0  9996
2 24795  86.4025 355.8619 0002122  85.6692 274.4747 14.34221225 40571
IRIDIUM 4 [-]           
1 24796U 97020E   17079.87579223  .00000100  00000-0  28032-4 0  9993
2 24796  86.4005 354.8314 0002211  84.9981 343.5042 14.35144198 40607
IRIDIUM 914 [-]         
1 24836U 97030A   17079.72705070  .00000116  00000-0  31408-4 0  9992
2 24836  86.3984  11.8792 0003581  67.1260 293.0316 14.38744936174128
IRIDIUM 12 [+]          
1 24837U 97030B   17079.84797536  .00000147  00000-0  45503-4 0  9999
2 24837  86.3991  27.0137 0002275  85.1569 331.4640 14.34218673 34009
IRIDIUM 10 [+]          
1 24839U 97030D   17079.90532382  .00000165  00000-0  51770-4 0  9997
2 24839  86.3990  26.9700 0002286  84.2973 333.4327 14.34218763 34289
IRIDIUM 13 [+]          
1 24840U 97030E   17079.84337192  .00000154  00000-0  48010-4 0  9995
2 24840  86.3992  27.1340 0002386  87.3302 272.8167 14.34218193 34282
IRIDIUM 16 [-]          
1 24841U 97030F   17079.88744608  .00000123  00000-0  34925-4 0  9990
2 24841  86.4071  26.9866 0002009 152.7525 207.3777 14.36695777 34647
IRIDIUM 911 [-]         
1 24842U 97030G   17079.95302350  .00000128  00000-0  30984-4 0  9999
2 24842  86.4496  27.7954 0015662  31.6785 328.5356 14.44940329 40212
IRIDIUM 15 [+]          
1 24869U 97034A   17079.88473948 -.00000055  00000-0 -26637-4 0  9997
2 24869  86.3937  59.0102 0001943  83.3964 276.7453 14.34216558 30987
IRIDIUM 17 [-]          
1 24870U 97034B   17079.93673313  .00000107  00000-0  30151-4 0  9995
2 24870  86.3950  57.1487 0003518 113.2323 246.9244 14.35743264 31518
IRIDIUM 920 [-]         
1 24871U 97034C   17079.32483854  .00000129  00000-0  35005-4 0  9995
2 24871  86.3982  43.7996 0009562 274.0958  85.9148 14.39458184 33575
IRIDIUM 18 [+]          
1 24872U 97034D   17079.86573418 -.00000050  00000-0 -24901-4 0  9999
2 24872  86.3944  58.9892 0002063  84.8803 275.2628 14.34215331 31218
IRIDIUM 921 [-]         
1 24873U 97034E   17079.77930431  .00000325  00000-0  17228-4 0  9999
2 24873  86.3898 107.7856 0007533   1.4746 358.6513 15.11172045 74461
IRIDIUM 26 [-]          
1 24903U 97043A   17079.69939146  .00000088  00000-0  23912-4 0  9999
2 24903  86.3930 291.8509 0001963  90.8764 336.9280 14.35244486 24802
IRIDIUM 25 [+]          
1 24904U 97043B   17079.67439887 -.00000058  00000-0 -27697-4 0  9998
2 24904  86.3923 292.4392 0001851  83.9147 276.2259 14.34217992 24933
IRIDIUM 46 [+]          
1 24905U 97043C   17079.82661694  .00000014  00000-0 -20099-5 0  9990
2 24905  86.3928 292.3367 0001714  89.1292 271.0100 14.34213802 25167
IRIDIUM 23 [+]          
1 24906U 97043D   17079.69369884 -.00000057  00000-0 -27360-4 0  9997
2 24906  86.3937 292.4667 0001874  79.5431 347.4665 14.34218289 24872
IRIDIUM 22 [+]          
1 24907U 97043E   17079.65538077 -.00000057  00000-0 -27539-4 0  9994
2 24907  86.3935 293.1062 0001944  82.6640 277.4776 14.34216825 25154
DUMMY MASS 1 [-]        
1 24925U 97048A   17079.51181573  .00000072  00000-0  50779-5 0  9997
2 24925  86.3310  84.3082 0007279  15.4239 344.7206 14.85123604 58181
DUMMY MASS 2 [-]        
1 24926U 97048B   17079.94080417  .00000082  00000-0  63159-5 0  9997
2 24926  86.3309  85.2122 0008313  19.2821 340.8716 14.84891748 58097
IRIDIUM 29 [-]          
1 24944U 97051A   17079.18194385 -.00000047  00000-0 -23717-4 0  9995
2 24944  86.3980 324.1243 0002392  83.0875 277.0593 14.34618842 21675
IRIDIUM 32 [+]          
1 24945U 97051B   17079.75395526  .00000115  00000-0  33906-4 0  9994
2 24945  86.3970 324.0876 0002086  82.0415 278.1018 14.34219495 21748
IRIDIUM 33 [-]          
1 24946U 97051C   17079.74526872  .00000083  00000-0  22837-4 0  9999
2 24946  86.3888 323.7691 0008401 157.0706 203.0866 14.33542094 21359
IRIDIUM 28 [-]          
1 24948U 97051E   17079.74273017  .00000082  00000-0  21626-4 0  9995
2 24948  86.3976 323.1736 0001940  94.4119 265.7299 14.35538030 21820
IRIDIUM 30 [+]          
1 24949U 97051F   17079.60808995 -.00000071  00000-0 -32460-4 0  9998
2 24949  86.3990 324.2670 0001737  92.1583 267.9812 14.34218162 21498
IRIDIUM 31 [+]          
1 24950U 97051G   17079.74126953  .00000131  00000-0  39625-4 0  9997
2 24950  86.3971 324.1861 0002229  84.8536 275.2914 14.34221091 21819
IRIDIUM 19 [+]          
1 24965U 97056A   17079.86529688  .00000167  00000-0  52718-4 0  9990
2 24965  86.4006 355.6295 0002190  83.2283 276.9162 14.34224203 19890
IRIDIUM 35 [+]          
1 24966U 97056B   17079.80819772  .00000166  00000-0  52234-4 0  9993
2 24966  86.4006 355.6477 0002201  83.1286 277.0160 14.34216203 19585
IRIDIUM 36 [-]          
1 24967U 97056C   17079.82053858  .00000093  00000-0  25345-4 0  9993
2 24967  86.4018 354.7701 0002324  86.9827 273.1636 14.35590351 20180
IRIDIUM 37 [+]          
1 24968U 97056D   17079.85268207  .00000184  00000-0  58484-4 0  9994
2 24968  86.4009 355.8131 0002221  82.5904 277.5544 14.34221882 19660
IRIDIUM 34 [+]          
1 24969U 97056E   17079.73209101  .00000169  00000-0  53303-4 0  9998
2 24969  86.4008 355.8001 0002218  83.5157 276.6291 14.34223257 19862
IRIDIUM 43 [+]          
1 25039U 97069A   17079.92913198  .00000033  00000-0  47616-5 0  9991
2 25039  86.3945  58.8969 0002417  89.9957 270.1515 14.34215806 13663
IRIDIUM 41 [+]          
1 25040U 97069B   17079.85303791 -.00000043  00000-0 -22540-4 0  9998
2 25040  86.3943  58.8763 0002007  85.0072 275.1353 14.34215503 13350
IRIDIUM 40 [+]          
1 25041U 97069C   17079.87839280  .00000007  00000-0 -47463-5 0  9999
2 25041  86.3939  59.0943 0003281  89.9259 270.2313 14.34216101 13654
IRIDIUM 39 [B]          
1 25042U 97069D   17079.93322025  .00000149  00000-0  36162-4 0  9990
2 25042  86.3908  56.8575 0016935 243.5858 116.3607 14.46136647 13701
IRIDIUM 38 [-]          
1 25043U 97069E   17079.93508817  .00000098  00000-0  26927-4 0  9997
2 25043  86.3950  56.1292 0001882 126.9523 233.1846 14.36015611 13806
IRIDIUM 42 [-]          
1 25077U 97077A   17079.95112123  .00000126  00000-0  37863-4 0  9999
2 25077  86.3949  58.7980 0002066  91.3577 268.7855 14.34532550  9535
IRIDIUM 44 [-]          
1 25078U 97077B   17079.84924480  .00000147  00000-0  42091-4 0  9997
2 25078  86.3963  48.6321 0002312 131.8282 228.3114 14.38105039 10901
IRIDIUM 45 [+]          
1 25104U 97082A   17079.73493107  .00000130  00000-0  39422-4 0  9994
2 25104  86.3968 324.2219 0001345 109.6122 250.5219 14.34219736  7439
IRIDIUM 24 [-]          
1 25105U 97082B   17079.92237694  .00000102  00000-0  26254-4 0  9991
2 25105  86.3882 272.7266 0009547 277.1875  82.8239 14.39841464  9908
IRIDIUM 47 [+]          
1 25106U 97082C   17079.83296339 -.00000041  00000-0 -21819-4 0  9999
2 25106  86.3920 292.2467 0001882  79.6875 280.4533 14.34217427  7419
IRIDIUM 49 [+]          
1 25108U 97082E   17079.64790383 -.00000053  00000-0 -26008-4 0  9996
2 25108  86.3923 292.4245 0001895  81.6621 338.1349 14.34217510  7426
IRIDIUM 52 [+]          
1 25169U 98010A   17079.94487204  .00000145  00000-0  44703-4 0  9995
2 25169  86.3995  27.2655 0002287  85.5246 274.6211 14.34218635998850
IRIDIUM 56 [+]          
1 25170U 98010B   17079.93862517  .00000168  00000-0  52937-4 0  9993
2 25170  86.4004  27.3673 0002075  87.3066 272.8368 14.34218989999058
IRIDIUM 54 [+]          
1 25171U 98010C   17079.83069983  .00000154  00000-0  47823-4 0  9992
2 25171  86.3995  27.3337 0002296  85.3470 274.7988 14.34218655999279
IRIDIUM 50 [+]          
1 25172U 98010D   17079.93215961  .00000143  00000-0  44123-4 0  9991
2 25172  86.3995  27.2481 0002329  83.2660 276.8800 14.34218825998830
IRIDIUM 53 [+]          
1 25173U 98010E   17079.95122278  .00000143  00000-0  43951-4 0  9990
2 25173  86.3995  27.2459 0002292  85.6599 274.4858 14.34219520998843
IRIDIUM 51 [S]          
1 25262U 98018A   17079.82733998  .00000210  00000-0  67819-4 0  9994
2 25262  86.4038 355.9591 0002318  73.7708 286.3743 14.34227249998266
IRIDIUM 61 [+]          
1 25263U 98018B   17079.71953555  .00000176  00000-0  55824-4 0  9990
2 25263  86.4009 355.8342 0002181  82.8605 277.2839 14.34222479993960
IRIDIUM 55 [+]          
1 25272U 98019A   17079.72224858  .00000133  00000-0  40258-4 0  9997
2 25272  86.3969 324.0097 0002060  82.9895 277.1535 14.34219480993169
IRIDIUM 57 [-]          
1 25273U 98019B   17079.76196919  .00000065  00000-0  16177-4 0  9995
2 25273  86.3977 324.2981 0002233  85.2675 274.8776 14.34260606993186
IRIDIUM 58 [+]          
1 25274U 98019C   17079.77298898  .00000123  00000-0  37001-4 0  9990
2 25274  86.3976 324.4872 0002012  81.5859 278.5565 14.34219525993186
IRIDIUM 59 [+]          
1 25275U 98019D   17079.77932693  .00000119  00000-0  35371-4 0  9992
2 25275  86.3971 324.3423 0002138  81.2392 278.9046 14.34220643993463
IRIDIUM 60 [+]          
1 25276U 98019E   17079.71590511  .00000125  00000-0  37741-4 0  9996
2 25276  86.3967 323.9919 0002052  83.6781 276.4649 14.34219699993176
IRIDIUM 62 [+]          
1 25285U 98021A   17079.88666081 -.00000061  00000-0 -28696-4 0  9993
2 25285  86.3919 260.8000 0001896  84.9269 275.2143 14.34214571992363
IRIDIUM 63 [-]          
1 25286U 98021B   17079.93708014  .00000111  00000-0  32196-4 0  9997
2 25286  86.3950 261.1838 0002244  85.4911  23.8965 14.34647158992113
